0 INTELSAT 507
1 14421U 83105A   13283.11266002 -.00000297  00000-0  10000-3 0   347
2 14421 014.7709 013.6667 0002731 066.4804 293.5535 00.99697783 91147
0 INTELSAT 507
1 14421U 83105A   13283.11266240  .00000000  00000-0  10000-3 0   353
2 14421 014.7718 013.6670 0001804 047.9244 312.1002 00.99693608 91142
0 INTELSAT 507
1 14421U 83105A   13285.11865050 -.00000297  00000-0  10000-3 0   358
2 14421 014.7727 013.6453 0002558 061.9189 298.1100 00.99697036 91165
0 INTELSAT 507
1 14421U 83105A   13291.13665290 -.00000270  00000-0  10000-3 0   363
2 14421 014.7772 013.5808 0002613 064.3751 295.6338 00.99694828 91220
0 INTELSAT 507
1 14421U 83105A   13293.14271641 -.00000252  00000-0  10000-3 0   370
2 14421 014.7793 013.5587 0002458 066.4351 293.5691 00.99694034 91243
